ONEWEB-0055             
1 45443U 20020V   20130.58334491 -.00197269  00000-0 -19439-1 0  9990
2 45443  87.5236 121.9925 0028944 111.4925 187.9299 14.92878435  7410
ONEWEB-0093             
1 45444U 20020W   20130.58334491 -.00181902  00000-0 -14353-1 0  9998
2 45444  87.4900 121.8758 0029646 111.9761 276.2361 15.01381179  7433
ONEWEB-0029             
1 45445U 20020X   20130.58334491 -.00054373  00000-0 -56139-2 0  9999
2 45445  87.5007 122.0226 0030195 113.2124 259.8063 14.90222250  7410
ONEWEB-0068             
1 45446U 20020Y   20130.58334491 -.00056634  00000-0 -58309-2 0  9993
2 45446  87.5001 122.0391 0030305 115.3151 201.9254 14.90344328  7404
ONEWEB-0046             
1 45447U 20020Z   20130.58334491 -.00061000  00000-0 -63177-2 0  9996
2 45447  87.5101 122.0572 0030128 115.4161 119.0793 14.90134244  7403
ONEWEB-0063             
1 45448U 20020AA  20130.58334491 -.00055839  00000-0 -58002-2 0  9991
2 45448  87.5022 122.0222 0030188 117.7420 305.0555 14.89987979  7410
ONEWEB-0019             
1 45449U 20020AB  20130.58334491 -.00060167  00000-0 -62305-2 0  9993
2 45449  87.5026 122.4009 0030416 120.0628  49.1130 14.90128976  7368
ONEWEB-0094             
1 45450U 20020AC  20130.58334491 -.00054113  00000-0 -55746-2 0  9990
2 45450  87.4873 122.0686 0029857 120.1875 286.6119 14.90318432  7406
ONEWEB-0087             
1 45451U 20020AD  20130.58334491 -.00057324  00000-0 -60069-2 0  9992
2 45451  87.4730 122.2860 0029100 122.6283 181.4416 14.89668944  7367
ONEWEB-0082             
1 45452U 20020AE  20130.58334491 -.00060253  00000-0 -62167-2 0  9999
2 45452  87.4588 122.0503 0029502 122.3949 136.4971 14.90297130  7399
ONEWEB-0050             
1 45453U 20020AF  20130.58334491 -.00187489  00000-0 -17062-1 0  9994
2 45453  87.6004 122.1323 0028460 121.3141  52.8995 14.95959455  7411
ONEWEB-0034             
1 45454U 20020AG  20130.58334491 -.00061178  00000-0 -63498-2 0  9996
2 45454  87.4618 122.0619 0027866 120.9993  90.7054 14.90099714  7399
ONEWEB-0060             
1 45455U 20020AH  20130.58334491 -.00057745  00000-0 -57713-2 0  9995
2 45455  87.4713 122.4538 0026828 122.2332 171.5350 14.91614550  7343
ONEWEB-0086             
1 45456U 20020AJ  20130.58334491 -.00059402  00000-0 -62029-2 0  9994
2 45456  87.4676 122.3760 0026644 120.8132  33.0172 14.89873000  7355
ONEWEB-0088             
1 45457U 20020AK  20130.58334491 -.00056727  00000-0 -59181-2 0  9997
2 45457  87.4494 122.4058 0025912 121.3454 341.6953 14.89911354  7344
